NORAD_CAT_ID,OBJECT_NAME,OBJECT_TYPE,EPOCH,MEAN_MOTION,ECCENTRICITY,INCLINATION,RA_OF_ASC_NODE,ARG_OF_PERICENTER,MEAN_ANOMALY,BSTAR,MEAN_MOTION_DOT,MEAN_MOTION_DDOT,TLE_LINE0,TLE_LINE1,TLE_LINE2,SEMIMAJOR_AXIS,PERIOD,APOGEE,PERIGEE,DECAYED
56492.0,STARLINK-5846,PAYLOAD,2024-07-07 04:09:11,14.98329074,0.0003474,69.999,203.7563,266.8337,93.2424,2.1845e-05,1.68e-06,0.0,0 STARLINK-5846,1 56492U 23064AW  24189.17305125  .00000168  00000-0  21845-4 0  9998,2 56492  69.9990 203.7563 0003474 266.8337  93.2424 14.98329074 65146,6950.196,96.107,574.475,569.646,0.0
56492.0,STARLINK-5846,PAYLOAD,2024-07-07 10:33:43,14.98328942,0.0003488,69.999,203.0829,267.6619,92.4141,1.1775e-05,4.7e-07,0.0,0 STARLINK-5846,1 56492U 23064AW  24189.44009182  .00000047  00000-0  11775-4 0  9999,2 56492  69.9990 203.0829 0003488 267.6619  92.4141 14.98328942 64825,6950.196,96.107,574.485,569.637,0.0
56492.0,STARLINK-5846,PAYLOAD,2024-07-08 10:35:44,14.98333096,0.0003519,69.999,200.5579,267.4027,92.673,5.8862e-05,6.09e-06,0.0,0 STARLINK-5846,1 56492U 23064AW  24190.44148715  .00000609  00000-0  58862-4 0  9999,2 56492  69.9990 200.5579 0003519 267.4027  92.6730 14.98333096 65334,6950.183,96.107,574.494,569.603,0.0
56492.0,STARLINK-5846,PAYLOAD,2024-07-08 18:36:24,14.98331229,0.0003539,69.999,199.716,267.6469,92.4285,4.391e-05,4.31e-06,0.0,0 STARLINK-5846,1 56492U 23064AW  24190.77528828  .00000431  00000-0  43910-4 0  9993,2 56492  69.9990 199.7160 0003539 267.6469  92.4285 14.98331229 65028,6950.189,96.107,574.514,569.594,0.0
56492.0,STARLINK-5846,PAYLOAD,2024-07-09 10:37:45,14.98330326,0.000353,69.999,198.033,267.3841,92.6914,3.1253e-05,2.8e-06,0.0,0 STARLINK-5846,1 56492U 23064AW  24191.44288893  .00000280  00000-0  31253-4 0  9992,2 56492  69.9990 198.0330 0003530 267.3841  92.6914 14.98330326 65489,6950.192,96.107,574.51,569.603,0.0
56492.0,STARLINK-5846,PAYLOAD,2024-07-10 10:39:46,14.98328998,0.0003511,69.9991,195.5084,267.5586,92.5171,-2.8346e-05,-4.31e-06,0.0,0 STARLINK-5846,1 56492U 23064AW  24192.44429150 -.00000431  00000-0 -28346-4 0  9995,2 56492  69.9991 195.5084 0003511 267.5586  92.5171 14.98328998 65638,6950.196,96.107,574.501,569.621,0.0
56492.0,STARLINK-5846,PAYLOAD,2024-07-10 17:04:18,14.98330626,0.0003514,69.9991,194.8351,267.7394,92.3362,-2.0119e-06,-1.17e-06,0.0,0 STARLINK-5846,1 56492U 23064AW  24192.71132982 -.00000117  00000-0 -20119-5 0  9991,2 56492  69.9991 194.8351 0003514 267.7394  92.3362 14.98330626 65315,6950.191,96.107,574.498,569.614,0.0
56492.0,STARLINK-5846,PAYLOAD,2024-07-11 10:41:47,14.98332085,0.0003528,69.9992,192.9837,268.1413,91.9342,4.6518e-05,4.62e-06,0.0,0 STARLINK-5846,1 56492U 23064AW  24193.44568741  .00000462  00000-0  46518-4 0  9999,2 56492  69.9992 192.9837 0003528 268.1413  91.9342 14.98332085 65422,6950.186,96.107,574.503,569.599,0.0
56492.0,STARLINK-5846,PAYLOAD,2024-07-12 10:43:48,14.98331099,0.000352,69.9992,190.4588,268.0612,92.0143,6.5131e-05,6.84e-06,0.0,0 STARLINK-5846,1 56492U 23064AW  24194.44708757  .00000684  00000-0  65131-4 0  9991,2 56492  69.9992 190.4588 0003520 268.0612  92.0143 14.98331099 65931,6950.189,96.107,574.501,569.608,0.0
56492.0,STARLINK-5846,PAYLOAD,2024-07-12 17:08:20,14.98330345,0.000354,69.9992,189.7855,268.726,91.3493,4.2272e-05,4.11e-06,0.0,0 STARLINK-5846,1 56492U 23064AW  24194.71412868  .00000411  00000-0  42272-4 0  9995,2 56492  69.9992 189.7855 0003540 268.7260  91.3493 14.98330345 65615,6950.192,96.107,574.517,569.596,0.0
56492.0,STARLINK-5846,PAYLOAD,2024-07-13 09:09:41,14.98331669,0.00035,69.9993,188.1025,268.4538,91.622,1.9992e-05,1.45e-06,0.0,0 STARLINK-5846,1 56492U 23064AW  24195.38172820  .00000145  00000-0  19992-4 0  9997,2 56492  69.9993 188.1025 0003500 268.4538  91.6220 14.98331669 65711,6950.188,96.107,574.485,569.62,0.0
56492.0,STARLINK-5846,PAYLOAD,2024-07-13 17:10:21,14.983327,0.0003516,69.9993,187.2607,268.4478,91.6279,3.4143e-05,3.14e-06,0.0,0 STARLINK-5846,1 56492U 23064AW  24195.71552680  .00000314  00000-0  34143-4 0  9993,2 56492  69.9993 187.2607 0003516 268.4478  91.6279 14.98332700 66124,6950.185,96.107,574.493,569.606,0.0
56492.0,STARLINK-5846,PAYLOAD,2024-07-14 09:11:41,14.9833609,0.0003517,69.9993,185.5776,268.2661,91.8095,6.4227e-05,6.73e-06,0.0,0 STARLINK-5846,1 56492U 23064AW  24196.38312278  .00000673  00000-0  64227-4 0  9998,2 56492  69.9993 185.5776 0003517 268.2661  91.8095 14.98336090 65869,6950.174,96.107,574.483,569.595,0.0
56492.0,STARLINK-5846,PAYLOAD,2024-07-14 17:12:22,14.98331971,0.0003482,69.9995,184.7358,268.3368,91.7392,2.9804e-05,2.63e-06,0.0,0 STARLINK-5846,1 56492U 23064AW  24196.71692554  .00000263  00000-0  29804-4 0  9990,2 56492  69.9995 184.7358 0003482 268.3368  91.7392 14.98331971 66272,6950.187,96.107,574.472,569.632,0.0
56492.0,STARLINK-5846,PAYLOAD,2024-07-15 09:13:42,14.98331697,0.0003478,69.9995,183.0529,268.3017,91.7744,3.8235e-05,3.63e-06,0.0,0 STARLINK-5846,1 56492U 23064AW  24197.38452523  .00000363  00000-0  38235-4 0  9993,2 56492  69.9995 183.0529 0003478 268.3017  91.7744 14.98331697 66018,6950.188,96.107,574.47,569.635,0.0
56492.0,STARLINK-5846,PAYLOAD,2024-07-15 22:02:47,14.98331715,0.0003425,69.9997,181.7063,268.49,91.5866,-5.1476e-06,-1.54e-06,0.0,0 STARLINK-5846,1 56492U 23064AW  24197.91860583 -.00000154  00000-0 -51476-5 0  9994,2 56492  69.9997 181.7063 0003425 268.4900  91.5866 14.98331715 66094,6950.188,96.107,574.433,569.672,0.0
56492.0,STARLINK-5846,PAYLOAD,2024-07-16 06:03:27,14.98333312,0.0003431,69.9997,180.8648,268.463,91.6136,6.0593e-06,-2.1e-07,0.0,0 STARLINK-5846,1 56492U 23064AW  24198.25240416 -.00000021  00000-0  60593-5 0  9991,2 56492  69.9997 180.8648 0003431 268.4630  91.6136 14.98333312 66502,6950.183,96.107,574.432,569.663,0.0
56492.0,STARLINK-5846,PAYLOAD,2024-07-16 09:15:43,14.98333877,0.0003425,69.9997,180.5282,268.545,91.5317,1.278e-05,5.9e-07,0.0,0 STARLINK-5846,1 56492U 23064AW  24198.38592337  .00000059  00000-0  12780-4 0  9991,2 56492  69.9997 180.5282 0003425 268.5450  91.5317 14.98333877 66165,6950.181,96.107,574.426,569.665,0.0
56492.0,STARLINK-5846,PAYLOAD,2024-07-17 04:29:21,14.98326727,0.0003316,70.0,178.5086,270.012,90.0659,-1.0822e-05,-2.22e-06,0.0,0 STARLINK-5846,1 56492U 23064AW  24199.18704927 -.00000222  00000-0 -10822-4 0  9999,2 56492  70.0000 178.5086 0003316 270.0120  90.0659 14.98326727 66645,6950.203,96.107,574.373,569.763,0.0
56492.0,STARLINK-5846,PAYLOAD,2024-07-17 09:17:44,14.98330157,0.0003221,70.0003,178.0042,267.8679,92.2111,4.9358e-05,4.96e-06,0.0,0 STARLINK-5846,1 56492U 23064AW  24199.38732558  .00000496  00000-0  49358-4 0  9999,2 56492  70.0003 178.0042 0003221 267.8679  92.2111 14.98330157 66316,6950.192,96.107,574.296,569.819,0.0
56492.0,STARLINK-5846,PAYLOAD,2024-07-18 04:31:21,14.98329275,0.0003159,70.0003,175.9846,267.3362,92.7435,4.2301e-05,4.12e-06,0.0,0 STARLINK-5846,1 56492U 23064AW  24200.18844740  .00000412  00000-0  42301-4 0  9996,2 56492  70.0003 175.9846 0003159 267.3362  92.7435 14.98329275 66793,6950.195,96.107,574.256,569.865,0.0
56492.0,STARLINK-5846,PAYLOAD,2024-07-18 07:43:37,14.9833237,0.0003142,70.0003,175.6478,268.735,91.3449,7.4237e-05,7.93e-06,0.0,0 STARLINK-5846,1 56492U 23064AW  24200.32196471  .00000793  00000-0  74237-4 0  9998,2 56492  70.0003 175.6478 0003142 268.7350  91.3449 14.98332370 66458,6950.186,96.107,574.234,569.867,0.0
56492.0,STARLINK-5846,PAYLOAD,2024-07-18 15:44:18,14.9833134,0.0003158,70.0003,174.8062,269.4816,90.5981,5.6453e-05,5.81e-06,0.0,0 STARLINK-5846,1 56492U 23064AW  24200.65576565  .00000581  00000-0  56453-4 0  9995,2 56492  70.0003 174.8062 0003158 269.4816  90.5981 14.98331340 66504,6950.189,96.107,574.249,569.859,0.0
56492.0,STARLINK-5846,PAYLOAD,2024-07-19 04:33:23,14.98327728,0.0003247,70.0,173.4599,271.6092,88.4695,1.5713e-05,9.4e-07,0.0,0 STARLINK-5846,1 56492U 23064AW  24201.18984980  .00000094  00000-0  15713-4 0  9991,2 56492  70.0000 173.4599 0003247 271.6092  88.4695 14.98327728 66942,6950.2,96.107,574.322,569.808,0.0
56492.0,STARLINK-5846,PAYLOAD,2024-07-19 07:45:38,14.98332099,0.0003205,70.0001,173.1239,270.3977,89.6814,4.8013e-05,4.8e-06,0.0,0 STARLINK-5846,1 56492U 23064AW  24201.32336605  .00000480  00000-0  48013-4 0  9990,2 56492  70.0001 173.1239 0003205 270.3977  89.6814 14.98332099 66609,6950.186,96.107,574.279,569.824,0.0
56492.0,STARLINK-5846,PAYLOAD,2024-07-19 15:46:19,14.98331889,0.0003312,69.9998,172.2818,270.3007,89.7773,1.687e-05,1.08e-06,0.0,0 STARLINK-5846,1 56492U 23064AW  24201.65716588  .00000108  00000-0  16870-4 0  9991,2 56492  69.9998 172.2818 0003312 270.3007  89.7773 14.98331889 66653,6950.187,96.107,574.354,569.75,0.0
56492.0,STARLINK-5846,PAYLOAD,2024-07-20 04:35:23,14.98327703,0.0003022,70.0002,170.934,267.3651,92.7162,2.8273e-05,2.44e-06,0.0,0 STARLINK-5846,1 56492U 23064AW  24202.19124924  .00000244  00000-0  28273-4 0  9999,2 56492  70.0002 170.9340 0003022 267.3651  92.7162 14.98327703 67091,6950.2,96.107,574.165,569.965,0.0
56492.0,STARLINK-5846,PAYLOAD,2024-07-20 07:47:39,14.98330377,0.0003061,70.0002,170.5974,268.4545,91.6264,3.8994e-05,3.72e-06,0.0,0 STARLINK-5846,1 56492U 23064AW  24202.32476737  .00000372  00000-0  38994-4 0  9999,2 56492  70.0002 170.5974 0003061 268.4545  91.6264 14.98330377 66751,6950.192,96.107,574.184,569.929,0.0
56492.0,STARLINK-5846,PAYLOAD,2024-07-20 22:12:52,14.98331505,0.0003048,70.0002,169.0825,270.4901,89.5908,6.6742e-05,7.03e-06,0.0,0 STARLINK-5846,1 56492U 23064AW  24202.92560573  .00000703  00000-0  66742-4 0  9997,2 56492  70.0002 169.0825 0003048 270.4901  89.5908 14.98331505 66848,6950.188,96.107,574.172,569.935,0.0
56492.0,STARLINK-5846,PAYLOAD,2024-07-21 04:37:24,14.98335008,0.0003066,70.0,168.4096,270.7251,89.3557,9.1685e-05,1.001e-05,0.0,0 STARLINK-5846,1 56492U 23064AW  24203.19264258  .00001001  00000-0  91685-4 0  9994,2 56492  70.0000 168.4096 0003066 270.7251  89.3557 14.98335008 67245,6950.177,96.107,574.173,569.911,0.0
